{"type": "FeatureCollection", "features": [{"type": "Feature", "id": 260543429, "geometry": {"type": "Point", "coordinates": [-122.256219, 37.873403]}, "properties": {"entrance": "yes"}}, {"type": "Feature", "id": 314115735, "geometry": {"type": "Point", "coordinates": [-122.267939, 37.872064]}, "properties": {"addr:city": "Berkeley", "addr:country": "US", "addr:housenumber": "48", "addr:state": "CA", "addr:street": "Shattuck Square", "entrance": "yes"}}, {"type": "Feature", "id": 560215412, "geometry": {"type": "Point", "coordinates": [-122.257905, 37.874838]}, "properties": {"access": "private", "entrance": "yes"}}, {"type": "Feature", "id": 560215482, "geometry": {"type": "Point", "coordinates": [-122.257888, 37.874792]}, "properties": {"entrance": "yes"}}, {"type": "Feature", "id": 828422236, "geometry": {"type": "Point", "coordinates": [-122.28205, 37.873207]}, "properties": {"barrier": "entrance", "entrance": "yes"}}, {"type": "Feature", "id": 828422250, "geometry": {"type": "Point", "coordinates": [-122.283294, 37.87403]}, "properties": {"entrance": "main", "level": "1", "railway": "subway_entrance", "wheelchair": "no"}}, {"type": "Feature", "id": 1140525970, "geometry": {"type": "Point", "coordinates": [-122.267914, 37.871838]}, "properties": {"addr:city": "Berkeley", "addr:country": "US", "addr:housenumber": "46", "addr:state": "CA", "addr:street": "Shattuck Square", "entrance": "yes"}}, {"type": "Feature", "id": 1140525972, "geometry": {"type": "Point", "coordinates": [-122.268208, 37.871802]}, "properties": {"addr:city": "Berkeley", "addr:country": "US", "addr:housenumber": "63", "addr:state": "CA", "addr:street": "Shattuck Square", "entrance": "yes"}}, {"type": "Feature", "id": 1140525995, "geometry": {"type": "Point", "coordinates": [-122.267907, 37.871771]}, "properties": {"addr:city": "Berkeley", "addr:country": "US", "addr:housenumber": "64E", "addr:state": "CA", "addr:street": "Shattuck Square", "entrance": "yes"}}, {"type": "Feature", "id": 1140526016, "geometry": {"type": "Point", "coordinates": [-122.267893, 37.871603]}, "properties": {"addr:city": "Berkeley", "addr:country": "US", "addr:housenumber": "64C", "addr:state": "CA", "addr:street": "Shattuck Square", "entrance": "yes"}}, {"type": "Feature", "id": 1140526018, "geometry": {"type": "Point", "coordinates": [-122.268184, 37.872032]}, "properties": {"addr:city": "Berkeley", "addr:country": "US", "addr:housenumber": "21", "addr:state": "CA", "addr:street": "Shattuck Square", "entrance": "yes"}}, {"type": "Feature", "id": 1140526020, "geometry": {"type": "Point", "coordinates": [-122.267992, 37.87129]}, "properties": {"addr:city": "Berkeley", "addr:country": "US", "addr:housenumber": "15", "addr:state": "CA", "addr:street": "Shattuck Square", "entrance": "yes"}}, {"type": "Feature", "id": 1140526030, "geometry": {"type": "Point", "coordinates": [-122.267867, 37.871367]}, "properties": {"addr:city": "Berkeley", "addr:country": "US", "addr:housenumber": "52", "addr:state": "CA", "addr:street": "Shattuck Square", "entrance": "yes"}}, {"type": "Feature", "id": 1140526035, "geometry": {"type": "Point", "coordinates": [-122.267879, 37.871466]}, "properties": {"addr:city": "Berkeley", "addr:country": "US", "addr:housenumber": "80", "addr:state": "CA", "addr:street": "Shattuck Square", "entrance": "yes"}}, {"type": "Feature", "id": 1140526038, "geometry": {"type": "Point", "coordinates": [-122.268142, 37.87145]}, "properties": {"addr:city": "Berkeley", "addr:country": "US", "addr:housenumber": "91", "addr:state": "CA", "addr:street": "Shattuck Square", "entrance": "yes"}}, {"type": "Feature", "id": 1140526040, "geometry": {"type": "Point", "coordinates": [-122.267906, 37.871756]}, "properties": {"addr:city": "Berkeley", "addr:country": "US", "addr:housenumber": "64F", "addr:state": "CA", "addr:street": "Shattuck Square", "entrance": "yes"}}, {"type": "Feature", "id": 1140526046, "geometry": {"type": "Point", "coordinates": [-122.268174, 37.87163]}, "properties": {"addr:city": "Berkeley", "addr:country": "US", "addr:housenumber": "64", "addr:state": "CA", "addr:street": "Shattuck Square", "entrance": "yes"}}, {"type": "Feature", "id": 1140535437, "geometry": {"type": "Point", "coordinates": [-122.272771, 37.871453]}, "properties": {"addr:city": "Berkeley", "addr:country": "US", "addr:housenumber": "1900", "addr:state": "CA", "addr:street": "University Avenue", "entrance": "yes"}}, {"type": "Feature", "id": 1140535439, "geometry": {"type": "Point", "coordinates": [-122.272625, 37.871465]}, "properties": {"addr:city": "Berkeley", "addr:country": "US", "addr:housenumber": "1908", "addr:state": "CA", "addr:street": "University Avenue", "entrance": "yes"}}, {"type": "Feature", "id": 1140535444, "geometry": {"type": "Point", "coordinates": [-122.272697, 37.871459]}, "properties": {"addr:city": "Berkeley", "addr:country": "US", "addr:housenumber": "1904", "addr:state": "CA", "addr:street": "University Avenue", "entrance": "yes"}}, {"type": "Feature", "id": 1419619773, "geometry": {"type": "Point", "coordinates": [-122.262324, 37.868618]}, "properties": {"entrance": "yes"}}, {"type": "Feature", "id": 1419647373, "geometry": {"type": "Point", "coordinates": [-122.261307, 37.871672]}, "properties": {"entrance": "yes"}}, {"type": "Feature", "id": 1419647375, "geometry": {"type": "Point", "coordinates": [-122.262031, 37.871155]}, "properties": {"entrance": "yes"}}, {"type": "Feature", "id": 1778550074, "geometry": {"type": "Point", "coordinates": [-122.277811, 37.882238]}, "properties": {"entrance": "main"}}, {"type": "Feature", "id": 1938182000, "geometry": {"type": "Point", "coordinates": [-122.272998, 37.87363]}, "properties": {"entrance": "main"}}, {"type": "Feature", "id": 2086712208, "geometry": {"type": "Point", "coordinates": [-122.269547, 37.852557]}, "properties": {"entrance": "yes"}}, {"type": "Feature", "id": 2144915109, "geometry": {"type": "Point", "coordinates": [-122.273899, 37.871129]}, "properties": {"entrance": "main"}}, {"type": "Feature", "id": 2206283678, "geometry": {"type": "Point", "coordinates": [-122.2787, 37.89128]}, "properties": {"entrance": "yes"}}, {"type": "Feature", "id": 2206283690, "geometry": {"type": "Point", "coordinates": [-122.278642, 37.890951]}, "properties": {"entrance": "yes"}}, {"type": "Feature", "id": 2229442828, "geometry": {"type": "Point", "coordinates": [-122.268803, 37.868177]}, "properties": {"entrance": "main"}}, {"type": "Feature", "id": 2274545055, "geometry": {"type": "Point", "coordinates": [-122.262849, 37.837773]}, "properties": {"addr:city": "Oakland", "addr:housenumber": "5199", "addr:street": "Telegraph Avenue", "amenity": "restaurant", "cuisine": "mexican", "delivery": "no", "entrance": "yes", "internet_access": "no", "name": "La Calaca Loca", "outdoor_seating": "yes", "smoking": "no", "takeaway": "yes", "wheelchair": "yes"}}, {"type": "Feature", "id": 2433108804, "geometry": {"type": "Point", "coordinates": [-122.277971, 37.866177]}, "properties": {"entrance": "yes"}}, {"type": "Feature", "id": 2440310554, "geometry": {"type": "Point", "coordinates": [-122.258129, 37.873725]}, "properties": {"door": "hinged", "entrance": "main", "level": "-1", "name": "entrance to evans", "wheelchair": "limited"}}, {"type": "Feature", "id": 2559452987, "geometry": {"type": "Point", "coordinates": [-122.252488, 37.843651]}, "properties": {"entrance": "yes"}}, {"type": "Feature", "id": 2794679680, "geometry": {"type": "Point", "coordinates": [-122.262612, 37.838185]}, "properties": {"amenity": "library", "contact:website": "http://www.oaklandlibrary.org/locations/tool-lending-library", "entrance": "yes", "name": "Temescal Tool Lending Library", "opening_hours": "Mo 10:00-17:30; Tu-We 10:00-20:00; Th 10:00-17:30; Fr 12:00-17:30; Sa 10:00-17:30", "phone": "+1-510-597-5089"}}, {"type": "Feature", "id": 2835429912, "geometry": {"type": "Point", "coordinates": [-122.260452, 37.869156]}, "properties": {"entrance": "main"}}, {"type": "Feature", "id": 2844599478, "geometry": {"type": "Point", "coordinates": [-122.27786, 37.881184]}, "properties": {"entrance": "yes"}}, {"type": "Feature", "id": 3038362846, "geometry": {"type": "Point", "coordinates": [-122.258011, 37.873417]}, "properties": {"entrance": "yes", "level": "-1"}}, {"type": "Feature", "id": 3038362847, "geometry": {"type": "Point", "coordinates": [-122.257593, 37.873563]}, "properties": {"entrance": "yes", "level": "0"}}, {"type": "Feature", "id": 3038364435, "geometry": {"type": "Point", "coordinates": [-122.262147, 37.873269]}, "properties": {"entrance": "main"}}, {"type": "Feature", "id": 3038365537, "geometry": {"type": "Point", "coordinates": [-122.256463, 37.873815]}, "properties": {"entrance": "main"}}, {"type": "Feature", "id": 3038365538, "geometry": {"type": "Point", "coordinates": [-122.257164, 37.874153]}, "properties": {"entrance": "main"}}, {"type": "Feature", "id": 3178364001, "geometry": {"type": "Point", "coordinates": [-122.255011, 37.870601]}, "properties": {"entrance": "yes", "level": "1", "wheelchair": "yes"}}, {"type": "Feature", "id": 3178364005, "geometry": {"type": "Point", "coordinates": [-122.25496, 37.870351]}, "properties": {"entrance": "yes"}}, {"type": "Feature", "id": 3183578268, "geometry": {"type": "Point", "coordinates": [-122.26645, 37.869518]}, "properties": {"entrance": "main"}}, {"type": "Feature", "id": 3202492297, "geometry": {"type": "Point", "coordinates": [-122.269279, 37.859605]}, "properties": {"entrance": "main"}}, {"type": "Feature", "id": 3207780535, "geometry": {"type": "Point", "coordinates": [-122.254809, 37.87065]}, "properties": {"entrance": "yes", "level": "1"}}, {"type": "Feature", "id": 3355181961, "geometry": {"type": "Point", "coordinates": [-122.269456, 37.875731]}, "properties": {"entrance": "main"}}, {"type": "Feature", "id": 3796363274, "geometry": {"type": "Point", "coordinates": [-122.283471, 37.878963]}, "properties": {"entrance": "main"}}, {"type": "Feature", "id": 3808968900, "geometry": {"type": "Point", "coordinates": [-122.257481, 37.855139]}, "properties": {"entrance": "yes"}}, {"type": "Feature", "id": 3814258391, "geometry": {"type": "Point", "coordinates": [-122.268661, 37.864187]}, "properties": {"entrance": "main"}}, {"type": "Feature", "id": 3900964512, "geometry": {"type": "Point", "coordinates": [-122.273208, 37.872112]}, "properties": {"access": "private", "addr:city": "Berkeley", "addr:country": "US", "addr:housenumber": "1988", "addr:postcode": "94704", "addr:state": "CA", "addr:street": "Martin Luther King Jr Way", "entrance": "main", "source": "local knowledge", "wheelchair": "yes"}}, {"type": "Feature", "id": 3921092913, "geometry": {"type": "Point", "coordinates": [-122.302177, 37.872939]}, "properties": {"entrance": "yes"}}, {"type": "Feature", "id": 3921092915, "geometry": {"type": "Point", "coordinates": [-122.301833, 37.873102]}, "properties": {"entrance": "main"}}, {"type": "Feature", "id": 3921092916, "geometry": {"type": "Point", "coordinates": [-122.301826, 37.87331]}, "properties": {"entrance": "yes"}}, {"type": "Feature", "id": 3921092917, "geometry": {"type": "Point", "coordinates": [-122.302304, 37.873479]}, "properties": {"entrance": "emergency"}}, {"type": "Feature", "id": 3921092918, "geometry": {"type": "Point", "coordinates": [-122.301883, 37.873484]}, "properties": {"entrance": "emergency"}}, {"type": "Feature", "id": 4070522013, "geometry": {"type": "Point", "coordinates": [-122.269823, 37.871833]}, "properties": {"access": "customers", "addr:city": "Berkeley", "addr:country": "US", "addr:housenumber": "2036", "addr:postcode": "94704", "addr:state": "CA", "addr:street": "University Avenue", "entrance": "main", "name": "The UC Theatre", "wheelchair": "yes"}}, {"type": "Feature", "id": 4301518133, "geometry": {"type": "Point", "coordinates": [-122.25756, 37.872669]}, "properties": {"entrance": "yes"}}, {"type": "Feature", "id": 4306097757, "geometry": {"type": "Point", "coordinates": [-122.290559, 37.850593]}, "properties": {"access": "yes", "entrance": "yes", "wheelchair": "yes"}}, {"type": "Feature", "id": 4378691934, "geometry": {"type": "Point", "coordinates": [-122.257178, 37.874909]}, "properties": {"entrance": "yes"}}, {"type": "Feature", "id": 4378691936, "geometry": {"type": "Point", "coordinates": [-122.257789, 37.874761]}, "properties": {"access": "private", "entrance": "yes"}}, {"type": "Feature", "id": 4378691937, "geometry": {"type": "Point", "coordinates": [-122.257834, 37.875273]}, "properties": {"access": "private", "entrance": "yes"}}, {"type": "Feature", "id": 4378691939, "geometry": {"type": "Point", "coordinates": [-122.257472, 37.875321]}, "properties": {"access": "private", "entrance": "yes", "wheelchair": "no"}}, {"type": "Feature", "id": 4772817792, "geometry": {"type": "Point", "coordinates": [-122.307841, 37.898912]}, "properties": {"entrance": "yes"}}, {"type": "Feature", "id": 4772818538, "geometry": {"type": "Point", "coordinates": [-122.307845, 37.899056]}, "properties": {"entrance": "yes"}}, {"type": "Feature", "id": 5120572270, "geometry": {"type": "Point", "coordinates": [-122.259911, 37.874157]}, "properties": {"entrance": "yes"}}, {"type": "Feature", "id": 5546043749, "geometry": {"type": "Point", "coordinates": [-122.260472, 37.869253]}, "properties": {"description": "Zellerbarch Accessible Door", "entrance": "yes", "wheelchair": "yes"}}, {"type": "Feature", "id": 5706153775, "geometry": {"type": "Point", "coordinates": [-122.29196, 37.840345]}, "properties": {"entrance": "yes"}}, {"type": "Feature", "id": 5809130439, "geometry": {"type": "Point", "coordinates": [-122.255385, 37.88549]}, "properties": {"entrance": "yes"}}, {"type": "Feature", "id": 5809157866, "geometry": {"type": "Point", "coordinates": [-122.238142, 37.874834]}, "properties": {"entrance": "yes"}}, {"type": "Feature", "id": 5839741647, "geometry": {"type": "Point", "coordinates": [-122.266231, 37.870663]}, "properties": {"entrance": "main"}}, {"type": "Feature", "id": 7012287677, "geometry": {"type": "Point", "coordinates": [-122.273999, 37.871296]}, "properties": {"entrance": "yes"}}, {"type": "Feature", "id": 7059228786, "geometry": {"type": "Point", "coordinates": [-122.252428, 37.843674]}, "properties": {"entrance": "yes"}}, {"type": "Feature", "id": 7059228790, "geometry": {"type": "Point", "coordinates": [-122.251832, 37.843721]}, "properties": {"entrance": "main"}}, {"type": "Feature", "id": 7059228793, "geometry": {"type": "Point", "coordinates": [-122.252136, 37.843789]}, "properties": {"entrance": "yes"}}, {"type": "Feature", "id": 7108865786, "geometry": {"type": "Point", "coordinates": [-122.290631, 37.890607]}, "properties": {"entrance": "main"}}, {"type": "Feature", "id": 7208055967, "geometry": {"type": "Point", "coordinates": [-122.285372, 37.890854]}, "properties": {"entrance": "exit"}}, {"type": "Feature", "id": 7208055968, "geometry": {"type": "Point", "coordinates": [-122.285337, 37.890761]}, "properties": {"entrance": "service"}}, {"type": "Feature", "id": 7208055969, "geometry": {"type": "Point", "coordinates": [-122.285358, 37.890914]}, "properties": {"dog": "designated", "entrance": "main", "name": "DOG"}}, {"type": "Feature", "id": 7208055970, "geometry": {"type": "Point", "coordinates": [-122.285323, 37.890921]}, "properties": {"cat": "designated", "entrance": "main", "name": "CAT"}}, {"type": "Feature", "id": 8307368860, "geometry": {"type": "Point", "coordinates": [-122.307832, 37.898585]}, "properties": {"entrance": "yes"}}, {"type": "Feature", "id": 8307368862, "geometry": {"type": "Point", "coordinates": [-122.307132, 37.899371]}, "properties": {"entrance": "yes"}}, {"type": "Feature", "id": 8345897604, "geometry": {"type": "Point", "coordinates": [-122.292517, 37.856014]}, "properties": {"addr:housenumber": "904", "addr:street": "Pardee Street", "entrance": "yes"}}, {"type": "Feature", "id": 8345897605, "geometry": {"type": "Point", "coordinates": [-122.292063, 37.856107]}, "properties": {"addr:housenumber": "920", "addr:street": "Pardee Street", "entrance": "yes"}}, {"type": "Feature", "id": 8368065418, "geometry": {"type": "Point", "coordinates": [-122.288919, 37.854863]}, "properties": {"access": "customers", "entrance": "main", "level": "0", "ref": "Preschool entrance"}}, {"type": "Feature", "id": 8395357173, "geometry": {"type": "Point", "coordinates": [-122.258285, 37.873913]}, "properties": {"addr:street": "Kresge Engineering Library", "entrance": "yes", "level": "1"}}, {"type": "Feature", "id": 8395357175, "geometry": {"type": "Point", "coordinates": [-122.258605, 37.874407]}, "properties": {"entrance": "yes"}}, {"type": "Feature", "id": 8417825621, "geometry": {"type": "Point", "coordinates": [-122.262531, 37.868868]}, "properties": {"entrance": "yes"}}, {"type": "Feature", "id": 8436408309, "geometry": {"type": "Point", "coordinates": [-122.255285, 37.86594]}, "properties": {"entrance": "yes"}}, {"type": "Feature", "id": 8436435630, "geometry": {"type": "Point", "coordinates": [-122.254859, 37.866229]}, "properties": {"entrance": "yes"}}, {"type": "Feature", "id": 8436435632, "geometry": {"type": "Point", "coordinates": [-122.25517, 37.866246]}, "properties": {"entrance": "yes"}}, {"type": "Feature", "id": 8436435651, "geometry": {"type": "Point", "coordinates": [-122.254282, 37.866186]}, "properties": {"entrance": "yes"}}, {"type": "Feature", "id": 8436435659, "geometry": {"type": "Point", "coordinates": [-122.254434, 37.865884]}, "properties": {"entrance": "yes"}}, {"type": "Feature", "id": 8436435661, "geometry": {"type": "Point", "coordinates": [-122.254707, 37.865895]}, "properties": {"entrance": "yes"}}, {"type": "Feature", "id": 8436435697, "geometry": {"type": "Point", "coordinates": [-122.255228, 37.868021]}, "properties": {"entrance": "yes"}}, {"type": "Feature", "id": 8436435701, "geometry": {"type": "Point", "coordinates": [-122.255086, 37.867648]}, "properties": {"entrance": "yes"}}, {"type": "Feature", "id": 8436435717, "geometry": {"type": "Point", "coordinates": [-122.255659, 37.867716]}, "properties": {"entrance": "yes"}}, {"type": "Feature", "id": 8436435884, "geometry": {"type": "Point", "coordinates": [-122.256654, 37.87241]}, "properties": {"entrance": "yes", "wheelchair": "no"}}, {"type": "Feature", "id": 8436435886, "geometry": {"type": "Point", "coordinates": [-122.256754, 37.872681]}, "properties": {"entrance": "yes"}}, {"type": "Feature", "id": 8436435920, "geometry": {"type": "Point", "coordinates": [-122.260101, 37.867416]}, "properties": {"entrance": "yes"}}, {"type": "Feature", "id": 8436435922, "geometry": {"type": "Point", "coordinates": [-122.260744, 37.867337]}, "properties": {"entrance": "yes"}}, {"type": "Feature", "id": 8436435923, "geometry": {"type": "Point", "coordinates": [-122.260872, 37.867047]}, "properties": {"entrance": "yes"}}, {"type": "Feature", "id": 8436435926, "geometry": {"type": "Point", "coordinates": [-122.260015, 37.866988]}, "properties": {"entrance": "yes"}}, {"type": "Feature", "id": 8436435940, "geometry": {"type": "Point", "coordinates": [-122.255531, 37.868022]}, "properties": {"entrance": "yes"}}, {"type": "Feature", "id": 8436435941, "geometry": {"type": "Point", "coordinates": [-122.254647, 37.867962]}, "properties": {"entrance": "yes"}}, {"type": "Feature", "id": 8436435943, "geometry": {"type": "Point", "coordinates": [-122.254793, 37.867649]}, "properties": {"entrance": "yes"}}, {"type": "Feature", "id": 8451378020, "geometry": {"type": "Point", "coordinates": [-122.263221, 37.868626]}, "properties": {"entrance": "yes"}}, {"type": "Feature", "id": 8451378031, "geometry": {"type": "Point", "coordinates": [-122.258868, 37.871112]}, "properties": {"entrance": "yes"}}, {"type": "Feature", "id": 8451378160, "geometry": {"type": "Point", "coordinates": [-122.259067, 37.871596]}, "properties": {"entrance": "yes"}}, {"type": "Feature", "id": 8467880855, "geometry": {"type": "Point", "coordinates": [-122.254984, 37.870474]}, "properties": {"entrance": "yes", "level": "1"}}, {"type": "Feature", "id": 8467880864, "geometry": {"type": "Point", "coordinates": [-122.254775, 37.870477]}, "properties": {"entrance": "yes", "level": "2"}}, {"type": "Feature", "id": 8467880865, "geometry": {"type": "Point", "coordinates": [-122.254797, 37.870591]}, "properties": {"entrance": "yes", "level": "2"}}, {"type": "Feature", "id": 8467880866, "geometry": {"type": "Point", "coordinates": [-122.254791, 37.87056]}, "properties": {"entrance": "yes", "level": "2"}}, {"type": "Feature", "id": 8467880867, "geometry": {"type": "Point", "coordinates": [-122.254783, 37.870517]}, "properties": {"entrance": "yes", "level": "2"}}, {"type": "Feature", "id": 8499177749, "geometry": {"type": "Point", "coordinates": [-122.258962, 37.874162]}, "properties": {"entrance": "yes", "level": "2"}}, {"type": "Feature", "id": 8499177752, "geometry": {"type": "Point", "coordinates": [-122.25878, 37.873861]}, "properties": {"entrance": "yes", "level": "2"}}, {"type": "Feature", "id": 8505185422, "geometry": {"type": "Point", "coordinates": [-122.29861, 37.88805]}, "properties": {"entrance": "main"}}, {"type": "Feature", "id": 8723780507, "geometry": {"type": "Point", "coordinates": [-122.293675, 37.84289]}, "properties": {"entrance": "yes"}}, {"type": "Feature", "id": 8723780508, "geometry": {"type": "Point", "coordinates": [-122.293647, 37.84284]}, "properties": {"entrance": "yes"}}, {"type": "Feature", "id": 8723780509, "geometry": {"type": "Point", "coordinates": [-122.294436, 37.842677]}, "properties": {"entrance": "yes"}}, {"type": "Feature", "id": 8850719968, "geometry": {"type": "Point", "coordinates": [-122.293193, 37.887892]}, "properties": {"entrance": "yes"}}, {"type": "Feature", "id": 8850719969, "geometry": {"type": "Point", "coordinates": [-122.29325, 37.888076]}, "properties": {"entrance": "yes"}}, {"type": "Feature", "id": 8878430488, "geometry": {"type": "Point", "coordinates": [-122.296611, 37.881536]}, "properties": {"entrance": "yes"}}, {"type": "Feature", "id": 9063682133, "geometry": {"type": "Point", "coordinates": [-122.313741, 37.868648]}, "properties": {"entrance": "main"}}, {"type": "Feature", "id": 9336406082, "geometry": {"type": "Point", "coordinates": [-122.258981, 37.871954]}, "properties": {"entrance": "yes"}}, {"type": "Feature", "id": 9336410150, "geometry": {"type": "Point", "coordinates": [-122.259624, 37.872531]}, "properties": {"entrance": "main"}}, {"type": "Feature", "id": 9347384589, "geometry": {"type": "Point", "coordinates": [-122.251735, 37.87032]}, "properties": {"entrance": "yes", "name": "Gate 4"}}, {"type": "Feature", "id": 9347384590, "geometry": {"type": "Point", "coordinates": [-122.252327, 37.871064]}, "properties": {"entrance": "yes", "name": "Gate 3"}}, {"type": "Feature", "id": 9394151560, "geometry": {"type": "Point", "coordinates": [-122.286314, 37.850415]}, "properties": {"entrance": "main"}}, {"type": "Feature", "id": 9421229745, "geometry": {"type": "Point", "coordinates": [-122.293909, 37.841588]}, "properties": {"entrance": "main"}}, {"type": "Feature", "id": 9438368513, "geometry": {"type": "Point", "coordinates": [-122.260681, 37.872367]}, "properties": {"entrance": "main"}}, {"type": "Feature", "id": 9438368514, "geometry": {"type": "Point", "coordinates": [-122.260495, 37.872554]}, "properties": {"entrance": "yes"}}, {"type": "Feature", "id": 9438441526, "geometry": {"type": "Point", "coordinates": [-122.260006, 37.873572]}, "properties": {"entrance": "yes"}}, {"type": "Feature", "id": 9438441527, "geometry": {"type": "Point", "coordinates": [-122.258646, 37.872314]}, "properties": {"entrance": "yes"}}, {"type": "Feature", "id": 9441799446, "geometry": {"type": "Point", "coordinates": [-122.246687, 37.879237]}, "properties": {"entrance": "main"}}, {"type": "Feature", "id": 9509603415, "geometry": {"type": "Point", "coordinates": [-122.258478, 37.874901]}, "properties": {"entrance": "yes", "level": "3", "wheelchair": "yes"}}, {"type": "Feature", "id": 9528647893, "geometry": {"type": "Point", "coordinates": [-122.289165, 37.854119]}, "properties": {"entrance": "yes"}}, {"type": "Feature", "id": 9528647894, "geometry": {"type": "Point", "coordinates": [-122.289628, 37.854133]}, "properties": {"entrance": "main"}}, {"type": "Feature", "id": 9528647895, "geometry": {"type": "Point", "coordinates": [-122.289757, 37.854526]}, "properties": {"entrance": "yes"}}, {"type": "Feature", "id": 9531600019, "geometry": {"type": "Point", "coordinates": [-122.258354, 37.870117]}, "properties": {"entrance": "yes"}}, {"type": "Feature", "id": 9531600034, "geometry": {"type": "Point", "coordinates": [-122.258061, 37.870154]}, "properties": {"entrance": "yes"}}, {"type": "Feature", "id": 9531600062, "geometry": {"type": "Point", "coordinates": [-122.257693, 37.870201]}, "properties": {"entrance": "yes"}}, {"type": "Feature", "id": 9531600063, "geometry": {"type": "Point", "coordinates": [-122.257643, 37.869976]}, "properties": {"entrance": "yes"}}, {"type": "Feature", "id": 9531600103, "geometry": {"type": "Point", "coordinates": [-122.255921, 37.873737]}, "properties": {"entrance": "yes", "wheelchair": "yes"}}, {"type": "Feature", "id": 9531601723, "geometry": {"type": "Point", "coordinates": [-122.261798, 37.871903]}, "properties": {"entrance": "yes"}}, {"type": "Feature", "id": 9531601738, "geometry": {"type": "Point", "coordinates": [-122.261569, 37.87126]}, "properties": {"entrance": "yes"}}, {"type": "Feature", "id": 9531601743, "geometry": {"type": "Point", "coordinates": [-122.255989, 37.873316]}, "properties": {"entrance": "yes"}}, {"type": "Feature", "id": 9531606441, "geometry": {"type": "Point", "coordinates": [-122.255188, 37.871221]}, "properties": {"entrance": "main"}}, {"type": "Feature", "id": 9655259923, "geometry": {"type": "Point", "coordinates": [-122.294157, 37.841235]}, "properties": {"entrance": "main"}}, {"type": "Feature", "id": 9655259926, "geometry": {"type": "Point", "coordinates": [-122.29353, 37.841348]}, "properties": {"entrance": "main"}}, {"type": "Feature", "id": 9655259928, "geometry": {"type": "Point", "coordinates": [-122.293456, 37.841088]}, "properties": {"entrance": "yes"}}, {"type": "Feature", "id": 9767638465, "geometry": {"type": "Point", "coordinates": [-122.29141, 37.834133]}, "properties": {"entrance": "yes"}}, {"type": "Feature", "id": 9830465860, "geometry": {"type": "Point", "coordinates": [-122.261859, 37.857867]}, "properties": {"entrance": "main"}}, {"type": "Feature", "id": 9831610484, "geometry": {"type": "Point", "coordinates": [-122.279274, 37.858672]}, "properties": {"entrance": "yes"}}, {"type": "Feature", "id": 9831610491, "geometry": {"type": "Point", "coordinates": [-122.27872, 37.858742]}, "properties": {"entrance": "yes"}}, {"type": "Feature", "id": 9831610495, "geometry": {"type": "Point", "coordinates": [-122.278581, 37.858689]}, "properties": {"entrance": "main"}}, {"type": "Feature", "id": 9831621918, "geometry": {"type": "Point", "coordinates": [-122.279191, 37.858464]}, "properties": {"entrance": "yes"}}, {"type": "Feature", "id": 9831621919, "geometry": {"type": "Point", "coordinates": [-122.278795, 37.858515]}, "properties": {"entrance": "yes"}}, {"type": "Feature", "id": 9831621920, "geometry": {"type": "Point", "coordinates": [-122.278668, 37.858662]}, "properties": {"entrance": "yes"}}, {"type": "Feature", "id": 9831621921, "geometry": {"type": "Point", "coordinates": [-122.27866, 37.858621]}, "properties": {"entrance": "yes"}}, {"type": "Feature", "id": 9831621922, "geometry": {"type": "Point", "coordinates": [-122.278451, 37.858641]}, "properties": {"entrance": "yes"}}, {"type": "Feature", "id": 9831621923, "geometry": {"type": "Point", "coordinates": [-122.278368, 37.858289]}, "properties": {"entrance": "yes"}}, {"type": "Feature", "id": 9831621924, "geometry": {"type": "Point", "coordinates": [-122.278379, 37.858407]}, "properties": {"entrance": "yes"}}, {"type": "Feature", "id": 9831621925, "geometry": {"type": "Point", "coordinates": [-122.278523, 37.858268]}, "properties": {"entrance": "yes"}}, {"type": "Feature", "id": 9831621926, "geometry": {"type": "Point", "coordinates": [-122.279135, 37.858176]}, "properties": {"entrance": "yes"}}, {"type": "Feature", "id": 9831621927, "geometry": {"type": "Point", "coordinates": [-122.279363, 37.85852]}, "properties": {"entrance": "yes"}}, {"type": "Feature", "id": 9831621972, "geometry": {"type": "Point", "coordinates": [-122.278699, 37.857887]}, "properties": {"entrance": "yes"}}, {"type": "Feature", "id": 9921760699, "geometry": {"type": "Point", "coordinates": [-122.270096, 37.868992]}, "properties": {"entrance": "main"}}, {"type": "Feature", "id": 9939884356, "geometry": {"type": "Point", "coordinates": [-122.263045, 37.857282]}, "properties": {"entrance": "main"}}, {"type": "Feature", "id": 9939884403, "geometry": {"type": "Point", "coordinates": [-122.262803, 37.857959]}, "properties": {"entrance": "main"}}, {"type": "Feature", "id": 9939884404, "geometry": {"type": "Point", "coordinates": [-122.262707, 37.85775]}, "properties": {"entrance": "main"}}, {"type": "Feature", "id": 9939884405, "geometry": {"type": "Point", "coordinates": [-122.262589, 37.857878]}, "properties": {"entrance": "yes"}}, {"type": "Feature", "id": 9939911994, "geometry": {"type": "Point", "coordinates": [-122.262335, 37.857593]}, "properties": {"entrance": "yes"}}, {"type": "Feature", "id": 9991868841, "geometry": {"type": "Point", "coordinates": [-122.255192, 37.871397]}, "properties": {"entrance": "exit"}}, {"type": "Feature", "id": 10054221950, "geometry": {"type": "Point", "coordinates": [-122.296022, 37.889964]}, "properties": {"entrance": "yes"}}, {"type": "Feature", "id": 10054221951, "geometry": {"type": "Point", "coordinates": [-122.295121, 37.889488]}, "properties": {"entrance": "yes", "wheelchair": "yes"}}, {"type": "Feature", "id": 10080428058, "geometry": {"type": "Point", "coordinates": [-122.297993, 37.885007]}, "properties": {"entrance": "main", "wheelchair": "yes"}}, {"type": "Feature", "id": 10080428059, "geometry": {"type": "Point", "coordinates": [-122.297697, 37.885087]}, "properties": {"entrance": "yes", "wheelchair": "yes"}}, {"type": "Feature", "id": 10086058439, "geometry": {"type": "Point", "coordinates": [-122.293839, 37.891039]}, "properties": {"barrier": "gate", "entrance": "main"}}, {"type": "Feature", "id": 10091017732, "geometry": {"type": "Point", "coordinates": [-122.295283, 37.889407]}, "properties": {"entrance": "yes", "ref": "25"}}, {"type": "Feature", "id": 10091017733, "geometry": {"type": "Point", "coordinates": [-122.295187, 37.889428]}, "properties": {"entrance": "yes", "ref": "26"}}, {"type": "Feature", "id": 10099448635, "geometry": {"type": "Point", "coordinates": [-122.291778, 37.864493]}, "properties": {"addr:country": "US", "addr:housenumber": "1027A", "addr:state": "CA", "addr:street": "Bancroft Way", "entrance": "yes"}}, {"type": "Feature", "id": 10099448636, "geometry": {"type": "Point", "coordinates": [-122.291009, 37.862212]}, "properties": {"addr:housenumber": "2409", "addr:street": "Tenth Street", "entrance": "yes"}}, {"type": "Feature", "id": 10099448637, "geometry": {"type": "Point", "coordinates": [-122.290958, 37.862224]}, "properties": {"addr:housenumber": "2411", "addr:street": "Tenth Street", "entrance": "yes"}}, {"type": "Feature", "id": 10099448638, "geometry": {"type": "Point", "coordinates": [-122.290885, 37.862238]}, "properties": {"addr:housenumber": "2413", "addr:street": "Tenth Street", "entrance": "yes"}}, {"type": "Feature", "id": 10099448639, "geometry": {"type": "Point", "coordinates": [-122.290814, 37.862251]}, "properties": {"addr:housenumber": "2415", "addr:street": "Tenth Street", "entrance": "yes"}}, {"type": "Feature", "id": 10102288170, "geometry": {"type": "Point", "coordinates": [-122.291715, 37.864589]}, "properties": {"addr:country": "US", "addr:housenumber": "1027C", "addr:state": "CA", "addr:street": "Bancroft Way", "entrance": "yes"}}, {"type": "Feature", "id": 10102288171, "geometry": {"type": "Point", "coordinates": [-122.292042, 37.864486]}, "properties": {"addr:country": "US", "addr:housenumber": "2246", "addr:state": "CA", "addr:street": "Tenth Street", "entrance": "yes"}}, {"type": "Feature", "id": 10102288172, "geometry": {"type": "Point", "coordinates": [-122.292073, 37.864585]}, "properties": {"addr:country": "US", "addr:housenumber": "2240B", "addr:state": "CA", "addr:street": "Tenth Street", "entrance": "yes"}}, {"type": "Feature", "id": 10102288173, "geometry": {"type": "Point", "coordinates": [-122.292051, 37.864513]}, "properties": {"addr:country": "US", "addr:housenumber": "2242", "addr:state": "CA", "addr:street": "Tenth Street", "entrance": "yes"}}, {"type": "Feature", "id": 10102288174, "geometry": {"type": "Point", "coordinates": [-122.292064, 37.864556]}, "properties": {"addr:country": "US", "addr:housenumber": "2244", "addr:state": "CA", "addr:street": "Tenth Street", "entrance": "yes"}}, {"type": "Feature", "id": 10104549047, "geometry": {"type": "Point", "coordinates": [-122.291899, 37.85666]}, "properties": {"addr:housenumber": "2720", "addr:street": "Eighth Street", "entrance": "yes"}}, {"type": "Feature", "id": 10104549048, "geometry": {"type": "Point", "coordinates": [-122.291983, 37.856644]}, "properties": {"addr:housenumber": "2722", "addr:street": "Eighth Street", "entrance": "yes"}}, {"type": "Feature", "id": 10104549049, "geometry": {"type": "Point", "coordinates": [-122.292184, 37.856599]}, "properties": {"addr:housenumber": "2724", "addr:street": "Eighth Street", "entrance": "yes"}}, {"type": "Feature", "id": 10104549050, "geometry": {"type": "Point", "coordinates": [-122.292251, 37.856578]}, "properties": {"addr:housenumber": "2726", "addr:street": "Eighth Street", "entrance": "yes"}}, {"type": "Feature", "id": 10116712349, "geometry": {"type": "Point", "coordinates": [-122.296162, 37.885052]}, "properties": {"access": "private", "addr:country": "US", "addr:housenumber": "1051B", "addr:state": "CA", "addr:street": "Kains Avenue", "entrance": "yes"}}, {"type": "Feature", "id": 10116712350, "geometry": {"type": "Point", "coordinates": [-122.296148, 37.885013]}, "properties": {"access": "private", "addr:country": "US", "addr:housenumber": "1051A", "addr:state": "CA", "addr:street": "Kains Avenue", "entrance": "yes"}}, {"type": "Feature", "id": 10116712351, "geometry": {"type": "Point", "coordinates": [-122.296212, 37.885934]}, "properties": {"addr:country": "US", "addr:housenumber": "1031", "addr:state": "CA", "addr:street": "Kains Avenue", "entrance": "yes"}}, {"type": "Feature", "id": 10127786883, "geometry": {"type": "Point", "coordinates": [-122.272983, 37.846545]}, "properties": {"entrance": "main"}}, {"type": "Feature", "id": 10196318704, "geometry": {"type": "Point", "coordinates": [-122.269569, 37.852754]}, "properties": {"entrance": "yes"}}, {"type": "Feature", "id": 10196318712, "geometry": {"type": "Point", "coordinates": [-122.269524, 37.852682]}, "properties": {"entrance": "yes"}}]}