{"type": "FeatureCollection", "features": [{"type": "Feature", "id": 260556516, "geometry": {"type": "Point", "coordinates": [-122.257963, 37.872452]}, "properties": {"FIXME": "this has an official name which is not \"4.0 ball\"", "alt_name": "4.0 ball", "amenity": "fountain", "artwork_type": "sculpture", "historic": "memorial", "inscription": "This fountain was set here by the university cadets May 1905", "material": "concrete", "name": "4.0 Ball", "tourism": "artwork"}}, {"type": "Feature", "id": 1250628740, "geometry": {"type": "Point", "coordinates": [-122.254657, 37.869496]}, "properties": {"amenity": "fountain", "name": "Class of 1914 Fountain"}}, {"type": "Feature", "id": 1319014267, "geometry": {"type": "Point", "coordinates": [-122.251957, 37.891122]}, "properties": {"amenity": "fountain", "name": "Park Hills Fountain"}}, {"type": "Feature", "id": 1396551087, "geometry": {"type": "Point", "coordinates": [-122.310969, 37.885095]}, "properties": {"amenity": "fountain"}}, {"type": "Feature", "id": 1515942895, "geometry": {"type": "Point", "coordinates": [-122.290756, 37.841549]}, "properties": {"amenity": "fountain"}}, {"type": "Feature", "id": 1804658929, "geometry": {"type": "Point", "coordinates": [-122.248527, 37.864084]}, "properties": {"amenity": "fountain", "drinking_water": "no"}}, {"type": "Feature", "id": 1956150270, "geometry": {"type": "Point", "coordinates": [-122.29156, 37.890829]}, "properties": {"amenity": "fountain"}}, {"type": "Feature", "id": 1983268818, "geometry": {"type": "Point", "coordinates": [-122.271685, 37.869367]}, "properties": {"amenity": "fountain", "disused": "yes"}}, {"type": "Feature", "id": 2192297015, "geometry": {"type": "Point", "coordinates": [-122.259486, 37.869567]}, "properties": {"amenity": "fountain", "name": "Ludwig's Fountain"}}, {"type": "Feature", "id": 4922926227, "geometry": {"type": "Point", "coordinates": [-122.234782, 37.833566]}, "properties": {"amenity": "fountain"}}, {"type": "Feature", "id": 6501425537, "geometry": {"type": "Point", "coordinates": [-122.310935, 37.882999]}, "properties": {"amenity": "fountain"}}, {"type": "Feature", "id": 6501425538, "geometry": {"type": "Point", "coordinates": [-122.310834, 37.88275]}, "properties": {"amenity": "fountain"}}, {"type": "Feature", "id": 6501425539, "geometry": {"type": "Point", "coordinates": [-122.311036, 37.882862]}, "properties": {"amenity": "fountain"}}, {"type": "Feature", "id": 6501425540, "geometry": {"type": "Point", "coordinates": [-122.310802, 37.883971]}, "properties": {"amenity": "fountain"}}, {"type": "Feature", "id": 10139164038, "geometry": {"type": "Point", "coordinates": [-122.28384, 37.898724]}, "properties": {"amenity": "fountain"}}]}